BATSU-CS1 (IRAZU)       
1 43468U 98067NR  20008.40819466  .00103330  00000-0  37333-3 0  9995
2 43468  51.6336   2.3188 0003454  65.3086 294.8278 15.87812798195075
CUBERRT                 
1 43546U 98067NU  20008.49207115  .00008491  00000-0  78009-4 0  9991
2 43546  51.6368  24.1019 0003269 182.0012 178.0972 15.68661276 84941
TEMPEST-D               
1 43547U 98067NV  20008.69878221  .00000847  00000-0  16464-4 0  9990
2 43547  51.6403  42.0341 0005154 164.8259 195.2890 15.60205913 84400
RAINCUBE                
1 43548U 98067NW  20009.15644014  .00017825  00000-0  16951-3 0  9998
2 43548  51.6357  28.5204 0003769 181.8016 178.2967 15.66927291 85072
HALOSAT                 
1 43549U 98067NX  20008.53737733  .00015797  00000-0  15217-3 0  9991
2 43549  51.6372  31.9241 0003682 182.1913 177.9067 15.66710566 84535
ENDUROSAT ONE           
1 43551U 98067NZ  20009.22940586  .00025876  00000-0  21520-3 0  9996
2 43551  51.6354  23.0154 0003344 196.8347 163.2540 15.69957862 85126
EQUISAT                 
1 43552U 98067PA  20009.26044700  .00017538  00000-0  16562-3 0  9990
2 43552  51.6378  27.0420 0004181 193.6661 166.4223 15.67113935 85033
AEROCUBE 12A            
1 43556U 18046C   20008.90533083  .00000841  00000-0  41674-4 0  9992
2 43556  51.6414 156.6769 0009011  82.6220 277.5784 15.29282932 82808
AEROCUBE 12B            
1 43557U 18046D   20008.67902114  .00001781  00000-0  74685-4 0  9994
2 43557  51.6418 158.1588 0008940  81.5873 278.6120 15.29082526 82714
UITMSAT-1               
1 43589U 98067PD  20008.50626290  .00017888  00000-0  16279-3 0  9999
2 43589  51.6347  30.8911 0003326 202.4801 157.6050 15.68017444 80653
MAYA-1                  
1 43590U 98067PE  20008.30827041  .00018619  00000-0  16921-3 0  9993
2 43590  51.6350  31.8265 0003445 201.8863 158.1987 15.68018427 80551
BHUTAN-1                
1 43591U 98067PF  20009.24681578  .00022500  00000-0  20241-3 0  9995
2 43591  51.6359  26.8882 0003548 205.9378 154.1441 15.68129701 80706
SIRIUSSAT-1             
1 43595U 98067PG  20008.53458924  .00015713  00000-0  15114-3 0  9998
2 43595  51.6352  33.3435 0002314 145.4527 214.6619 15.66754958 79730
SIRIUSSAT-2             
1 43596U 98067PH  20009.28763317  .00019434  00000-0  18634-3 0  9991
2 43596  51.6360  30.1817 0002739 150.1838 209.9314 15.66654672 79841
TANUSHA-3               
1 43597U 98067PJ  20008.59180704  .00026342  00000-0  21482-3 0  9999
2 43597  51.6334  28.4164 0001594 157.2506 202.8562 15.70423888 79807
SURFSAT                 
1 43614U 18070B   20008.19387064  .00002451  00000-0  64793-4 0  9997
2 43614  93.0373  87.8732 0013248 234.5804 125.4213 15.38429109 73688
CP7 (DAVE)              
1 43615U 18070C   20008.66751848  .00002274  00000-0  60324-4 0  9994
2 43615  93.0377  88.0671 0013462 231.8448 128.1593 15.38320899 73755
ELFIN-B                 
1 43616U 18070D   20009.15534267  .00003294  00000-0  84431-4 0  9992
2 43616  93.0334  88.1786 0014040 233.2321 126.7645 15.39330861 73850
ELFIN-A                 
1 43617U 18070E   20008.81445187  .00003528  00000-0  90108-4 0  9995
2 43617  93.0392  88.4149 0013406 230.4651 129.5419 15.39448938 73801
CUBEBEL-1 (BSUSAT-1)    
1 43666U 18083E   20009.46602847  .00001246  00000-0  64613-4 0  9990
2 43666  97.5046  37.4022 0014510 191.0449 278.8544 15.17942650 66342
DEBRISSAT-2             
1 43680U 98067PR  20008.53040843  .00040733  00000-0  28163-3 0  9998
2 43680  51.6335  25.7893 0000583 159.6234 200.4788 15.74104674 88561
CICERO 10               
1 43690U 18088A   20009.13332827  .00000867  00000-0  38357-4 0  9998
2 43690  85.0381 183.9171 0015224 170.0254 190.1292 15.19962439 64386
IRVINE01                
1 43693U 18088D   20008.79558009  .00002272  00000-0  96884-4 0  9995
2 43693  85.0350 183.2813 0018817 156.5092 203.7014 15.22171730 64407
PROXIMA I               
1 43694U 18088E   20009.24222042  .00001041  00000-0  43972-4 0  9995
2 43694  85.0325 182.7793 0020448 147.0970 213.1550 15.21700750 64470
PROXIMA II              
1 43696U 18088G   20008.97772380  .00001031  00000-0  43519-4 0  9997
2 43696  85.0326 182.9562 0020453 147.9709 212.2781 15.21703937 64436
FACSAT-1                
1 43721U 18096C   20009.25283008  .00001152  00000-0  46449-4 0  9990
2 43721  97.4393  83.5952 0016909 333.1823  26.8540 15.26782943 61946
CENTAURI-2              
1 43722U 18096D   20008.86776729  .00001742  00000-0  68015-4 0  9992
2 43722  97.4401  83.3553 0016991 334.8448  25.1962 15.27165480 61889
INNOSAT-2               
1 43738U 18096V   20009.21864065  .00002328  00000-0  83452-4 0  9993
2 43738  97.4413  85.0437 0023182 341.5959  18.4440 15.29532751 62036
SIRION PATHFINDER-2     
1 43759U 18099B   20009.23744440 -.00000104  00000-0 -41715-5 0  9994
2 43759  97.7251  83.4839 0014333   4.4019 355.7325 14.95214774 59983
CORVUS-BC 4             
1 43767U 18099K   20009.18589685 -.00000129  00000-0 -66021-5 0  9999
2 43767  97.7233  83.0156 0011891   9.2426 350.9011 14.94653047 59967
MOVE-II                 
1 43780U 18099Y   20009.19194927  .00000251  00000-0  28050-4 0  9999
2 43780  97.7248  83.3410 0013658  15.7196 344.4446 14.95244280 59969
SPACEBEE-7              
1 43816U 18099BL  20009.16394815  .00000350  00000-0  36742-4 0  9991
2 43816  97.7266  83.6036 0013271   1.3315 358.7938 14.95563628 59538
SPACEBEE-5              
1 43817U 18099BM  20009.17322312  .00000513  00000-0  50905-4 0  9994
2 43817  97.7302  83.8403 0012902   1.1650 358.9599 14.95996711 59549
SPACEBEE-6              
1 43818U 18099BN  20008.87744133  .00000891  00000-0  85180-4 0  9992
2 43818  97.7274  83.3927 0013025   1.9237 358.2032 14.95698225 59645
SHIELDS 1               
1 43850U 18104B   20009.23353467  .00000041  00000-0  00000+0 0  9992
2 43850  85.0304 281.2498 0013273 306.2284  53.7744 15.21244183 59114
STF-1                   
1 43852U 18104D   20009.16022177  .00000041  00000-0  00000+0 0  9997
2 43852  85.0357 281.7169 0013449 322.5174  37.5149 15.20951959 59088
ZACUBE-2                
1 43907U 18111AH  20009.16573686  .00000572  00000-0  26076-4 0  9997
2 43907  97.2788 273.6265 0021458 354.4109   5.6886 15.24406667 57593
LUME 1                  
1 43908U 18111AJ  20008.86690167  .00001063  00000-0  45564-4 0  9997
2 43908  97.2788 273.4164 0021365 355.3796   4.7242 15.24710402 57556
AOBA VELOX-IV           
1 43940U 19003J   20009.12457847  .00001694  00000-0  71279-4 0  9992
2 43940  97.2529  65.7515 0025836  71.5197 340.5870 15.24440885 54220
CATSAT-2                
1 44029U 98067PV  20008.49026296  .00011687  00000-0  14510-3 0  9994
2 44029  51.6396  48.9265 0003877 192.3182 167.7718 15.60492474 53351
DELPHINI                
1 44030U 98067PW  20008.58100511  .00012258  00000-0  14929-3 0  9998
2 44030  51.6369  47.9819 0003559 186.5549 173.5399 15.60946650 53345
UNITE                   
1 44031U 98067PX  20008.63094757  .00007125  00000-0  98231-4 0  9995
2 44031  51.6381  50.5929 0002880 179.2859 180.8138 15.58415650 53318
TECHEDSAT 8             
1 44032U 98067PY  20009.26444435  .00063500  00000-0  45048-3 0  9994
2 44032  51.6349  33.0046 0000438  81.3642 278.7407 15.73314241 53585
CATSAT-1                
1 44033U 98067PZ  20009.25853834  .00012341  00000-0  15281-3 0  9994
2 44033  51.6396  45.0606 0003713 192.4551 167.6351 15.60502387 53383
RAAVANA-1               
1 44329U 98067QE  20008.53899243  .00007509  00000-0  11745-3 0  9997
2 44329  51.6407  59.0021 0006865 117.8859 242.2828 15.54847369 31945
UGUISU                  
1 44330U 98067QF  20008.54465398  .00007459  00000-0  11694-3 0  9997
2 44330  51.6409  59.0384 0006850 116.7230 243.4463 15.54794974 31925
NEPALISAT-1             
1 44331U 98067QG  20008.53447235  .00007444  00000-0  11636-3 0  9997
2 44331  51.6409  58.9722 0006879 119.3658 240.8021 15.54880410 31937
SPOOQY-1                
1 44332U 98067QH  20009.17461505  .00007536  00000-0  11776-3 0  9992
2 44332  51.6406  55.7448 0005722 123.3467 236.8072 15.54873306 31997
SPACEBEE-9              
1 44370U 19037F   20009.16484888  .00006364  00000-0  15840-3 0  9996
2 44370  45.0139 290.3670 0015015 325.7030  34.2910 15.41063078 29859
SPACEBEE-8              
1 44371U 19037G   20008.20442781  .00014746  00000-0  33177-3 0  9993
2 44371  45.0124 294.1923 0013132 324.2196  35.7848 15.43172688 29713
IOD-1 GEMS              
1 44385U 98067QK  20008.60872638  .00010948  00000-0  16380-3 0  9997
2 44385  51.6419  58.7424 0003423  83.0724 277.0657 15.55539733 29425
MOVE-IIB                
1 44398U 19038N   20008.81810847  .00001136  00000-0  69638-4 0  9993
2 44398  97.5155 332.3525 0024602 324.0117  35.9456 15.11965862 28306
SONATE                  
1 44400U 19038Q   20008.82385867  .00000436  00000-0  29196-4 0  9994
2 44400  97.5178 332.3759 0024368 322.1059  37.8455 15.11794842 28305
LUCKY-7                 
1 44406U 19038W   20008.66691037  .00000575  00000-0  37098-4 0  9995
2 44406  97.5176 332.2741 0023850 322.6486  37.3085 15.12016913 28270
BEESAT 9                
1 44412U 19038AC  20008.33945665  .00000787  00000-0  49371-4 0  9997
2 44412  97.5171 331.9369 0022152 330.1402  29.8563 15.12027229 27920
JAISAT-1                
1 44419U 19038F   20008.87423102  .00000796  00000-0  49275-4 0  9993
2 44419  97.5172 332.6063 0020959 328.0006  31.9951 15.12512177 28327
SWIATOWID               
1 44426U 98067QL  20009.33211659  .00014949  00000-0  21934-3 0  9990
2 44426  51.6445  55.1263 0004116  81.9977   6.5372 15.55744209 29547
KRAKSAT                 
1 44427U 98067QM  20008.71347382  .00005336  00000-0  89197-4 0  9991
2 44427  51.6423  59.4349 0004210  77.0599 283.0861 15.53678981 29475
VCC A                   
1 44428U 98067QN  20008.40929416  .00007329  00000-0  11695-3 0  9993
2 44428  51.6421  60.4061 0003425  92.2178 267.9205 15.54341311 29430
